NORAD_CAT_ID,OBJECT_NAME,OBJECT_TYPE,EPOCH,MEAN_MOTION,ECCENTRICITY,INCLINATION,RA_OF_ASC_NODE,ARG_OF_PERICENTER,MEAN_ANOMALY,BSTAR,MEAN_MOTION_DOT,MEAN_MOTION_DDOT,TLE_LINE0,TLE_LINE1,TLE_LINE2,SEMIMAJOR_AXIS,PERIOD,APOGEE,PERIGEE,DECAYED
53777.0,STARLINK-4664,PAYLOAD,2023-11-08 20:09:58,15.08825465,0.000135,53.2153,138.3785,77.4253,282.689,0.00022022,3.217e-05,0.0,0 STARLINK-4664,1 53777U 22111E   23312.84026313  .00003217  00000-0  22022-3 0  9998,2 53777  53.2153 138.3785 0001350  77.4253 282.6890 15.08825465 65091,6917.925,95.438,540.724,538.856,0.0
53777.0,STARLINK-4664,PAYLOAD,2023-11-09 05:42:17,15.08833334,0.00013,53.2154,136.595,85.9344,274.1796,0.00038435,5.833e-05,0.0,0 STARLINK-4664,1 53777U 22111E   23313.23770451  .00005833  00000-0  38435-3 0  9992,2 53777  53.2154 136.5950 0001300  85.9344 274.1796 15.08833334 65158,6917.901,95.438,540.665,538.866,0.0
53777.0,STARLINK-4664,PAYLOAD,2023-11-09 18:25:22,15.08844272,0.0001343,53.2151,134.2155,85.4029,274.7117,0.00054939,8.467e-05,0.0,0 STARLINK-4664,1 53777U 22111E   23313.76762446  .00008467  00000-0  54939-3 0  9998,2 53777  53.2151 134.2155 0001343  85.4029 274.7117 15.08844272 64424,6917.867,95.437,540.661,538.803,0.0
53777.0,STARLINK-4664,PAYLOAD,2023-11-10 11:54:36,15.08862337,0.0001364,53.215,130.944,84.8494,275.2654,0.00060721,9.395e-05,0.0,0 STARLINK-4664,1 53777U 22111E   23314.49625585  .00009395  00000-0  60721-3 0  9998,2 53777  53.2150 130.9440 0001364  84.8494 275.2654 15.08862337 65341,6917.812,95.436,540.621,538.734,0.0
53777.0,STARLINK-4664,PAYLOAD,2023-11-10 18:16:08,15.08869787,0.0001373,53.2149,129.7546,83.8778,276.2371,0.00068444,0.0001063,0.0,0 STARLINK-4664,1 53777U 22111E   23314.76121078  .00010630  00000-0  68444-3 0  9990,2 53777  53.2149 129.7546 0001373  83.8778 276.2371 15.08869787 65383,6917.789,95.436,540.604,538.705,0.0
53777.0,STARLINK-4664,PAYLOAD,2023-11-11 05:23:50,15.08862422,0.0001529,53.2144,127.675,69.2752,290.8404,0.00027769,4.137e-05,0.0,0 STARLINK-4664,1 53777U 22111E   23315.22488681  .00004137  00000-0  27769-3 0  9998,2 53777  53.2144 127.6750 0001529  69.2752 290.8404 15.08862422 64641,6917.812,95.436,540.735,538.619,0.0
53777.0,STARLINK-4664,PAYLOAD,2023-11-11 18:06:55,15.08847499,0.0001547,53.2149,125.2934,94.2446,265.8723,-9.6331e-05,-1.821e-05,0.0,0 STARLINK-4664,1 53777U 22111E   23315.75480749 -.00001821  00000-0 -96331-4 0  9994,2 53777  53.2149 125.2934 0001547  94.2446 265.8723 15.08847499 64724,6917.857,95.437,540.793,538.652,0.0
53777.0,STARLINK-4664,PAYLOAD,2023-11-11 21:17:42,15.08839147,0.0001693,53.2151,124.6981,91.5371,268.5815,0.0003549,5.365e-05,0.0,0 STARLINK-4664,1 53777U 22111E   23315.88729369  .00005365  00000-0  35490-3 0  9995,2 53777  53.2151 124.6981 0001693  91.5371 268.5815 15.08839147 65556,6917.883,95.438,540.919,538.577,0.0
53777.0,STARLINK-4664,PAYLOAD,2023-11-12 11:36:09,15.08845698,0.0001381,53.2155,122.0211,97.8386,262.2763,-7.641e-05,-1.504e-05,0.0,0 STARLINK-4664,1 53777U 22111E   23316.48344612 -.00001504  00000-0 -76410-4 0  9997,2 53777  53.2155 122.0211 0001381  97.8386 262.2763 15.08845698 65648,6917.863,95.437,540.683,538.773,0.0
53777.0,STARLINK-4664,PAYLOAD,2023-11-12 21:08:28,15.08848894,0.0001242,53.2167,120.2385,103.5956,256.5174,-3.1602e-05,-7.91e-06,0.0,0 STARLINK-4664,1 53777U 22111E   23316.88088414 -.00000791  00000-0 -31602-4 0  9997,2 53777  53.2167 120.2385 0001242 103.5956 256.5174 15.08848894 65707,6917.853,95.437,540.577,538.859,0.0
53777.0,STARLINK-4664,PAYLOAD,2023-11-13 03:30:00,15.08849721,0.0001235,53.2166,119.0489,106.3729,253.7399,-7.7597e-05,-1.523e-05,0.0,0 STARLINK-4664,1 53777U 22111E   23317.14584300 -.00001523  00000-0 -77597-4 0  9999,2 53777  53.2166 119.0489 0001235 106.3729 253.7399 15.08849721 64930,6917.851,95.437,540.57,538.861,0.0
53777.0,STARLINK-4664,PAYLOAD,2023-11-13 11:26:56,15.08840094,0.0001273,53.2166,117.562,91.0048,269.109,0.00011677,1.571e-05,0.0,0 STARLINK-4664,1 53777U 22111E   23317.47704579  .00001571  00000-0  11677-3 0  9994,2 53777  53.2166 117.5620 0001273  91.0048 269.1090 15.08840094 64984,6917.88,95.438,540.626,538.864,0.0
53777.0,STARLINK-4664,PAYLOAD,2023-11-13 17:48:28,15.08844916,0.000129,53.2166,116.3727,91.0713,269.0427,0.00014777,2.065e-05,0.0,0 STARLINK-4664,1 53777U 22111E   23317.74200204  .00002065  00000-0  14777-3 0  9993,2 53777  53.2166 116.3727 0001290  91.0713 269.0427 15.08844916 65832,6917.865,95.437,540.623,538.838,0.0
53777.0,STARLINK-4664,PAYLOAD,2023-11-14 11:17:44,15.08833447,0.0001315,53.2172,113.1022,88.8896,271.2247,1.9171e-05,1.7e-07,0.0,0 STARLINK-4664,1 53777U 22111E   23318.47065351  .00000017  00000-0  19171-4 0  9995,2 53777  53.2172 113.1022 0001315  88.8896 271.2247 15.08833447 65131,6917.9,95.438,540.675,538.856,0.0
53777.0,STARLINK-4664,PAYLOAD,2023-11-14 12:53:07,15.08830751,0.0001254,53.2162,112.8046,87.773,272.3405,3.5399e-05,2.75e-06,0.0,0 STARLINK-4664,1 53777U 22111E   23318.53689461  .00000275  00000-0  35399-4 0  9992,2 53777  53.2162 112.8046 0001254  87.7730 272.3405 15.08830751 65952,6917.909,95.438,540.641,538.906,0.0
53777.0,STARLINK-4664,PAYLOAD,2023-11-14 17:39:17,15.08832085,0.0001309,53.2161,111.9125,92.0328,268.0813,1.6997e-05,-1.7e-07,0.0,0 STARLINK-4664,1 53777U 22111E   23318.73561496 -.00000017  00000-0  16997-4 0  9999,2 53777  53.2161 111.9125 0001309  92.0328 268.0813 15.08832085 65982,6917.905,95.438,540.675,538.864,0.0
53777.0,STARLINK-4664,PAYLOAD,2023-11-16 10:59:20,15.08822251,0.000125,53.216,104.1819,85.6416,274.4719,3.6179e-05,2.88e-06,0.0,0 STARLINK-4664,1 53777U 22111E   23320.45787306  .00000288  00000-0  36179-4 0  9994,2 53777  53.2160 104.1819 0001250  85.6416 274.4719 15.08822251 65436,6917.935,95.439,540.664,538.935,0.0
53777.0,STARLINK-4664,PAYLOAD,2023-11-16 14:10:05,15.08837055,0.0001174,53.2169,103.5869,81.2339,278.8786,0.0001616,2.285e-05,0.0,0 STARLINK-4664,1 53777U 22111E   23320.59034209  .00002285  00000-0  16160-3 0  9992,2 53777  53.2169 103.5869 0001174  81.2339 278.8786 15.08837055 66266,6917.889,95.438,540.567,538.942,0.0
53777.0,STARLINK-4664,PAYLOAD,2023-11-16 18:56:14,15.08842037,0.0001249,53.2172,102.6947,84.8673,275.2462,0.00019601,2.833e-05,0.0,0 STARLINK-4664,1 53777U 22111E   23320.78905928  .00002833  00000-0  19601-3 0  9990,2 53777  53.2172 102.6947 0001249  84.8673 275.2462 15.08842037 65481,6917.874,95.437,540.603,538.875,0.0
53777.0,STARLINK-4664,PAYLOAD,2023-11-16 22:07:00,15.08845572,0.0001253,53.2172,102.0997,86.1185,273.9951,0.00022559,3.305e-05,0.0,0 STARLINK-4664,1 53777U 22111E   23320.92153693  .00003305  00000-0  22559-3 0  9991,2 53777  53.2172 102.0997 0001253  86.1185 273.9951 15.08845572 66316,6917.863,95.437,540.595,538.862,0.0
53777.0,STARLINK-4664,PAYLOAD,2023-11-17 14:00:52,15.08859625,0.0001312,53.2168,99.126,87.9692,272.145,0.00022873,3.356e-05,0.0,0 STARLINK-4664,1 53777U 22111E   23321.58393849  .00003356  00000-0  22873-3 0  9998,2 53777  53.2168  99.1260 0001312  87.9692 272.1450 15.08859625 66418,6917.82,95.436,540.593,538.778,0.0
53777.0,STARLINK-4664,PAYLOAD,2023-11-17 21:57:47,15.08866107,0.0001312,53.2165,97.639,87.3773,272.7369,0.00036051,5.458e-05,0.0,0 STARLINK-4664,1 53777U 22111E   23321.91513283  .00005458  00000-0  36051-3 0  9999,2 53777  53.2165  97.6390 0001312  87.3773 272.7369 15.08866107 66469,6917.801,95.436,540.573,538.758,0.0
53777.0,STARLINK-4664,PAYLOAD,2023-11-18 12:16:15,15.08851088,0.0001273,53.2167,94.9631,87.501,272.6127,7.1379e-05,8.49e-06,0.0,0 STARLINK-4664,1 53777U 22111E   23322.51129537  .00000849  00000-0  71379-4 0  9993,2 53777  53.2167  94.9631 0001273  87.5010 272.6127 15.08851088 65744,6917.846,95.437,540.592,538.831,0.0
53777.0,STARLINK-4664,PAYLOAD,2023-11-18 15:27:02,15.08851974,0.0001282,53.2166,94.3682,91.0468,269.0671,0.00011363,1.522e-05,0.0,0 STARLINK-4664,1 53777U 22111E   23322.64377335  .00001522  00000-0  11363-3 0  9993,2 53777  53.2166  94.3682 0001282  91.0468 269.0671 15.08851974 66570,6917.844,95.437,540.596,538.822,0.0
53777.0,STARLINK-4664,PAYLOAD,2023-11-18 21:48:34,15.08856841,0.000129,53.2166,93.1786,91.3126,268.8014,0.00034538,5.216e-05,0.0,0 STARLINK-4664,1 53777U 22111E   23322.90873109  .00005216  00000-0  34538-3 0  9995,2 53777  53.2166  93.1786 0001290  91.3126 268.8014 15.08856841 66616,6917.829,95.436,540.586,538.802,0.0
53777.0,STARLINK-4664,PAYLOAD,2023-11-19 13:42:25,15.08851354,0.0001334,53.2169,90.2051,91.7491,268.3654,0.00014696,2.052e-05,0.0,0 STARLINK-4664,1 53777U 22111E   23323.57113128  .00002052  00000-0  14696-3 0  9995,2 53777  53.2169  90.2051 0001334  91.7491 268.3654 15.08851354 66710,6917.846,95.437,540.634,538.788,0.0
53777.0,STARLINK-4664,PAYLOAD,2023-11-19 18:28:35,15.08854938,0.0001356,53.2169,89.3133,88.2119,271.9028,0.00036469,5.523e-05,0.0,0 STARLINK-4664,1 53777U 22111E   23323.76985040  .00005523  00000-0  36469-3 0  9994,2 53777  53.2169  89.3133 0001356  88.2119 271.9028 15.08854938 65931,6917.835,95.437,540.638,538.762,0.0
53777.0,STARLINK-4664,PAYLOAD,2023-11-19 20:03:58,15.08854593,0.000136,53.2168,89.0156,87.2752,272.8396,0.00033785,5.095e-05,0.0,0 STARLINK-4664,1 53777U 22111E   23323.83608958  .00005095  00000-0  33785-3 0  9994,2 53777  53.2168  89.0156 0001360  87.2752 272.8396 15.08854593 66755,6917.836,95.437,540.642,538.76,0.0
53777.0,STARLINK-4664,PAYLOAD,2023-11-19 23:14:44,15.08836233,0.0001526,53.217,88.4206,85.5197,274.5969,-4.9236e-05,-1.071e-05,0.0,0 STARLINK-4664,1 53777U 22111E   23323.96857526 -.00001071  00000-0 -49236-4 0  9996,2 53777  53.2170  88.4206 0001526  85.5197 274.5969 15.08836233 65963,6917.892,95.438,540.813,538.701,0.0
53777.0,STARLINK-4664,PAYLOAD,2023-11-20 13:33:12,15.08848298,0.0001399,53.217,85.7444,93.7399,266.3753,0.00029843,4.466e-05,0.0,0 STARLINK-4664,1 53777U 22111E   23324.56473277  .00004466  00000-0  29843-3 0  9990,2 53777  53.2170  85.7444 0001399  93.7399 266.3753 15.08848298 66864,6917.855,95.437,540.688,538.752,0.0
